{
  "type": "FeatureCollection",
  "features": [
    {
      "type": "Feature",
      "properties": {
        "norad_id": 30282,
        "name": "FENGYUN 1C DEB",
        "group": "fengyun-1c-debris",
        "lat": -70.61393852154042,
        "lon": 16.06353763403171,
        "alt_km": 806.1913225649114,
        "timestamp": "2025-12-13T16:48:32.985487+00:00",
        "meta_object_name": "FENGYUN 1C DEB",
        "meta_object_id": "1999-025YT",
        "meta_epoch": "2025-12-12T22:44:08.791872",
        "meta_mean_motion": 14.12974352,
        "meta_eccentricity": 0.02103156,
        "meta_inclination": 98.5017,
        "meta_ra_of_asc_node": 350.1924,
        "meta_arg_of_pericenter": 1.5103,
        "meta_mean_anomaly": 59.8635,
        "meta_ephemeris_type": 0,
        "meta_classification_type": "U",
        "meta_norad_cat_id": 30282,
        "meta_element_set_no": 999,
        "meta_rev_at_epoch": 97354,
        "meta_bstar": 0.00054039382,
        "meta_mean_motion_dot": 1.2e-05,
        "meta_mean_motion_ddot": 0,
        "tle_line1": "1 30282U 99025YT  25346.94732398  .00001200  00000+0  54039-3 0  9991",
        "tle_line2": "2 30282  98.5017 350.1924 0210315   1.5103  59.8635 14.12974352973545"
      },
      "geometry": {
        "type": "Point",
        "coordinates": [
          16.06353763403171,
          -70.61393852154042
        ]
      }
    },
    {
      "type": "Feature",
      "properties": {
        "norad_id": 30283,
        "name": "FENGYUN 1C DEB",
        "group": "fengyun-1c-debris",
        "lat": -3.583114279455882,
        "lon": 160.79952815624392,
        "alt_km": 996.5721866555896,
        "timestamp": "2025-12-13T16:48:32.985497+00:00",
        "meta_object_name": "FENGYUN 1C DEB",
        "meta_object_id": "1999-025YU",
        "meta_epoch": "2025-12-12T23:04:14.426112",
        "meta_mean_motion": 14.01975221,
        "meta_eccentricity": 0.01849993,
        "meta_inclination": 98.867,
        "meta_ra_of_asc_node": 340.6405,
        "meta_arg_of_pericenter": 42.6903,
        "meta_mean_anomaly": 11.2459,
        "meta_ephemeris_type": 0,
        "meta_classification_type": "U",
        "meta_norad_cat_id": 30283,
        "meta_element_set_no": 999,
        "meta_rev_at_epoch": 96694,
        "meta_bstar": 0.00013139552,
        "meta_mean_motion_dot": 1.91e-06,
        "meta_mean_motion_ddot": 0,
        "tle_line1": "1 30283U 99025YU  25346.96127808  .00000191  00000+0  13140-3 0  9994",
        "tle_line2": "2 30283  98.8670 340.6405 0184999  42.6903  11.2459 14.01975221966940"
      },
      "geometry": {
        "type": "Point",
        "coordinates": [
          160.79952815624392,
          -3.583114279455882
        ]
      }
    },
    {
      "type": "Feature",
      "properties": {
        "norad_id": 30284,
        "name": "FENGYUN 1C DEB",
        "group": "fengyun-1c-debris",
        "lat": 43.830933441669806,
        "lon": -115.38692062702937,
        "alt_km": 768.4808103777441,
        "timestamp": "2025-12-13T16:48:32.985508+00:00",
        "meta_object_name": "FENGYUN 1C DEB",
        "meta_object_id": "1999-025YV",
        "meta_epoch": "2025-12-11T16:09:28.658304",
        "meta_mean_motion": 14.28750296,
        "meta_eccentricity": 0.00377783,
        "meta_inclination": 98.7202,
        "meta_ra_of_asc_node": 54.1141,
        "meta_arg_of_pericenter": 111.9212,
        "meta_mean_anomaly": 42.5836,
        "meta_ephemeris_type": 0,
        "meta_classification_type": "U",
        "meta_norad_cat_id": 30284,
        "meta_element_set_no": 999,
        "meta_rev_at_epoch": 97500,
        "meta_bstar": 0.0022614863,
        "meta_mean_motion_dot": 5.696e-05,
        "meta_mean_motion_ddot": 0,
        "tle_line1": "1 30284U 99025YV  25345.67324836  .00005696  00000+0  22615-2 0  9993",
        "tle_line2": "2 30284  98.7202  54.1141 0037778 111.9212  42.5836 14.28750296975005"
      },
      "geometry": {
        "type": "Point",
        "coordinates": [
          -115.38692062702937,
          43.830933441669806
        ]
      }
    },
    {
      "type": "Feature",
      "properties": {
        "norad_id": 30286,
        "name": "FENGYUN 1C DEB",
        "group": "fengyun-1c-debris",
        "lat": 29.18043274411375,
        "lon": 176.9334927074698,
        "alt_km": 804.6804300865351,
        "timestamp": "2025-12-13T16:48:32.985518+00:00",
        "meta_object_name": "FENGYUN 1C DEB",
        "meta_object_id": "1999-025YX",
        "meta_epoch": "2025-12-12T23:25:48.302400",
        "meta_mean_motion": 14.12723511,
        "meta_eccentricity": 0.0064724,
        "meta_inclination": 98.6902,
        "meta_ra_of_asc_node": 351.3314,
        "meta_arg_of_pericenter": 132.1005,
        "meta_mean_anomaly": 297.2797,
        "meta_ephemeris_type": 0,
        "meta_classification_type": "U",
        "meta_norad_cat_id": 30286,
        "meta_element_set_no": 999,
        "meta_rev_at_epoch": 97462,
        "meta_bstar": 0.00013284323,
        "meta_mean_motion_dot": 2.09e-06,
        "meta_mean_motion_ddot": 0,
        "tle_line1": "1 30286U 99025YX  25346.97625350  .00000209  00000+0  13284-3 0  9992",
        "tle_line2": "2 30286  98.6902 351.3314 0064724 132.1005 297.2797 14.12723511974628"
      },
      "geometry": {
        "type": "Point",
        "coordinates": [
          176.9334927074698,
          29.18043274411375
        ]
      }
    },
    {
      "type": "Feature",
      "properties": {
        "norad_id": 30287,
        "name": "FENGYUN 1C DEB",
        "group": "fengyun-1c-debris",
        "lat": -30.312493475553268,
        "lon": -163.2795881654277,
        "alt_km": 1294.0865138894014,
        "timestamp": "2025-12-13T16:48:32.985529+00:00",
        "meta_object_name": "FENGYUN 1C DEB",
        "meta_object_id": "1999-025YY",
        "meta_epoch": "2025-12-12T21:18:56.435616",
        "meta_mean_motion": 13.68589855,
        "meta_eccentricity": 0.04133254,
        "meta_inclination": 98.638,
        "meta_ra_of_asc_node": 21.0891,
        "meta_arg_of_pericenter": 11.9233,
        "meta_mean_anomaly": 160.7724,
        "meta_ephemeris_type": 0,
        "meta_classification_type": "U",
        "meta_norad_cat_id": 30287,
        "meta_element_set_no": 999,
        "meta_rev_at_epoch": 93860,
        "meta_bstar": 0.0014809089,
        "meta_mean_motion_dot": 2.274e-05,
        "meta_mean_motion_ddot": 0,
        "tle_line1": "1 30287U 99025YY  25346.88815319  .00002274  00000+0  14809-2 0  9996",
        "tle_line2": "2 30287  98.6380  21.0891 0413325  11.9233 160.7724 13.68589855938605"
      },
      "geometry": {
        "type": "Point",
        "coordinates": [
          -163.2795881654277,
          -30.312493475553268
        ]
      }
    },
    {
      "type": "Feature",
      "properties": {
        "norad_id": 30288,
        "name": "FENGYUN 1C DEB",
        "group": "fengyun-1c-debris",
        "lat": -6.612178737602935,
        "lon": 70.52994215433844,
        "alt_km": 774.5954453849081,
        "timestamp": "2025-12-13T16:48:32.985540+00:00",
        "meta_object_name": "FENGYUN 1C DEB",
        "meta_object_id": "1999-025YZ",
        "meta_epoch": "2025-12-12T17:56:31.397568",
        "meta_mean_motion": 14.32584185,
        "meta_eccentricity": 0.00206284,
        "meta_inclination": 99.3949,
        "meta_ra_of_asc_node": 68.3985,
        "meta_arg_of_pericenter": 321.7198,
        "meta_mean_anomaly": 160.4239,
        "meta_ephemeris_type": 0,
        "meta_classification_type": "U",
        "meta_norad_cat_id": 30288,
        "meta_element_set_no": 999,
        "meta_rev_at_epoch": 97569,
        "meta_bstar": 0.0026382411,
        "meta_mean_motion_dot": 7.135e-05,
        "meta_mean_motion_ddot": 0,
        "tle_line1": "1 30288U 99025YZ  25346.74758562  .00007135  00000+0  26382-2 0  9998",
        "tle_line2": "2 30288  99.3949  68.3985 0020628 321.7198 160.4239 14.32584185975696"
      },
      "geometry": {
        "type": "Point",
        "coordinates": [
          70.52994215433844,
          -6.612178737602935
        ]
      }
    },
    {
      "type": "Feature",
      "properties": {
        "norad_id": 30289,
        "name": "FENGYUN 1C DEB",
        "group": "fengyun-1c-debris",
        "lat": 76.52179014938277,
        "lon": -54.8163602239635,
        "alt_km": 816.5775305419829,
        "timestamp": "2025-12-13T16:48:32.985550+00:00",
        "meta_object_name": "FENGYUN 1C DEB",
        "meta_object_id": "1999-025ZA",
        "meta_epoch": "2025-12-12T23:45:44.276256",
        "meta_mean_motion": 14.25829006,
        "meta_eccentricity": 0.00372723,
        "meta_inclination": 98.9264,
        "meta_ra_of_asc_node": 83.4838,
        "meta_arg_of_pericenter": 329.3204,
        "meta_mean_anomaly": 86.6351,
        "meta_ephemeris_type": 0,
        "meta_classification_type": "U",
        "meta_norad_cat_id": 30289,
        "meta_element_set_no": 999,
        "meta_rev_at_epoch": 97085,
        "meta_bstar": 0.0028738175,
        "meta_mean_motion_dot": 6.845e-05,
        "meta_mean_motion_ddot": 0,
        "tle_line1": "1 30289U 99025ZA  25346.99009579  .00006845  00000+0  28738-2 0  9997",
        "tle_line2": "2 30289  98.9264  83.4838 0037272 329.3204  86.6351 14.25829006970855"
      },
      "geometry": {
        "type": "Point",
        "coordinates": [
          -54.8163602239635,
          76.52179014938277
        ]
      }
    }
  ]
}